start=new Date('2022-09-17T00:00:00.000Z').valueOf();
sats=[{"MEAN_MOTION_DDOT":"0.0000000000000","REV_AT_EPOCH":"2915","OBJECT_ID":"2022-025AN","NORAD_CAT_ID":"51992","PERIOD":"95.437","MEAN_ANOMALY":"286.5477","RCS_SIZE":"LARGE","ELEMENT_SET_NO":"999","MEAN_ELEMENT_THEORY":"SGP4","DECAY_DATE":null,"SEMIMAJOR_AXIS":"6917.864","OBJECT_TYPE":"PAYLOAD","ARG_OF_PERICENTER":"73.5705","ECCENTRICITY":"0.00017270","PERIAPSIS":"538.534","RA_OF_ASC_NODE":"321.1587","TIME_SYSTEM":"UTC","TLE_LINE1":"1 51992U 22025AN  22259.51529206  .00001753  00000-0  12817-3 0  9995","COUNTRY_CODE":"US","EPOCH":"2022-09-16T12:22:01.233984","MEAN_MOTION":"15.08845297","FILE":"3575604","REF_FRAME":"TEME","LAUNCH_DATE":"2022-03-09","GP_ID":"212719635","INCLINATION":"53.2190","EPHEMERIS_TYPE":"0","BSTAR":"0.00012817000000","CLASSIFICATION_TYPE":"U","CENTER_NAME":"EARTH","TLE_LINE2":"2 51992  53.2190 321.1587 0001727  73.5705 286.5477 15.08845297 29154","SITE":"AFETR","OBJECT_NAME":"STARLINK-3643","APOAPSIS":"540.924","MEAN_MOTION_DOT":"0.00001753"},{"CLASSIFICATION_TYPE":"U","TLE_LINE2":"2 51993  53.2166 340.1681 0001603  59.5470 300.5681 15.08841328 29346","SITE":"AFETR","CENTER_NAME":"EARTH","OBJECT_NAME":"STARLINK-3648","APOAPSIS":"540.850","MEAN_MOTION_DOT":"0.00005299","COUNTRY_CODE":"US","EPOCH":"2022-09-16T17:42:38.683872","FILE":"3575787","MEAN_MOTION":"15.08841328","REF_FRAME":"TEME","LAUNCH_DATE":"2022-03-09","GP_ID":"212748937","INCLINATION":"53.2166","BSTAR":"0.00035074000000","EPHEMERIS_TYPE":"0","MEAN_ELEMENT_THEORY":"SGP4","DECAY_DATE":null,"SEMIMAJOR_AXIS":"6917.876","OBJECT_TYPE":"PAYLOAD","ARG_OF_PERICENTER":"59.5470","ECCENTRICITY":"0.00016030","PERIAPSIS":"538.632","RA_OF_ASC_NODE":"340.1681","TIME_SYSTEM":"UTC","TLE_LINE1":"1 51993U 22025AP  22259.73794773  .00005299  00000-0  35074-3 0  9992","MEAN_MOTION_DDOT":"0.0000000000000","REV_AT_EPOCH":"2934","OBJECT_ID":"2022-025AP","MEAN_ANOMALY":"300.5681","PERIOD":"95.437","NORAD_CAT_ID":"51993","RCS_SIZE":"LARGE","ELEMENT_SET_NO":"999"},{"MEAN_MOTION_DDOT":"0.0000000000000","REV_AT_EPOCH":"2917","NORAD_CAT_ID":"51994","PERIOD":"95.439","MEAN_ANOMALY":"304.7467","OBJECT_ID":"2022-025AQ","ELEMENT_SET_NO":"999","RCS_SIZE":"LARGE","MEAN_ELEMENT_THEORY":"SGP4","ARG_OF_PERICENTER":"55.3678","ECCENTRICITY":"0.00016170","SEMIMAJOR_AXIS":"6917.939","DECAY_DATE":null,"OBJECT_TYPE":"PAYLOAD","RA_OF_ASC_NODE":"320.8810","TIME_SYSTEM":"UTC","PERIAPSIS":"538.685","TLE_LINE1":"1 51994U 22025AQ  22259.57786735 -.00000703  00000-0 -26063-4 0  9990","COUNTRY_CODE":"US","MEAN_MOTION":"15.08820818","FILE":"3575787","EPOCH":"2022-09-16T13:52:07.739040","GP_ID":"212749187","LAUNCH_DATE":"2022-03-09","REF_FRAME":"TEME","EPHEMERIS_TYPE":"0","BSTAR":"-0.00002606300000","INCLINATION":"53.2179","CLASSIFICATION_TYPE":"U","TLE_LINE2":"2 51994  53.2179 320.8810 0001617  55.3678 304.7467 15.08820818 29179","SITE":"AFETR","OBJECT_NAME":"STARLINK-3647","CENTER_NAME":"EARTH","APOAPSIS":"540.923","MEAN_MOTION_DOT":"-0.00000703"},{"GP_ID":"212720375","REF_FRAME":"TEME","LAUNCH_DATE":"2022-03-09","EPHEMERIS_TYPE":"0","BSTAR":"0.00004598300000","INCLINATION":"53.2179","COUNTRY_CODE":"US","MEAN_MOTION":"15.08834524","FILE":"3575604","EPOCH":"2022-09-16T09:21:51.322176","APOAPSIS":"540.812","MEAN_MOTION_DOT":"0.00000444","CLASSIFICATION_TYPE":"U","TLE_LINE2":"2 51995  53.2179 321.7137 0001517  68.2182 291.8971 15.08834524 29135","SITE":"AFETR","OBJECT_NAME":"STARLINK-3636","CENTER_NAME":"EARTH","ELEMENT_SET_NO":"999","RCS_SIZE":"LARGE","REV_AT_EPOCH":"2913","MEAN_MOTION_DDOT":"0.0000000000000","NORAD_CAT_ID":"51995","MEAN_ANOMALY":"291.8971","PERIOD":"95.438","OBJECT_ID":"2022-025AR","RA_OF_ASC_NODE":"321.7137","TIME_SYSTEM":"UTC","PERIAPSIS":"538.713","TLE_LINE1":"1 51995U 22025AR  22259.39017734  .00000444  00000-0  45983-4 0  9999","MEAN_ELEMENT_THEORY":"SGP4","ECCENTRICITY":"0.00015170","ARG_OF_PERICENTER":"68.2182","DECAY_DATE":null,"OBJECT_TYPE":"PAYLOAD","SEMIMAJOR_AXIS":"6917.897"},{"ELEMENT_SET_NO":"999","RCS_SIZE":"LARGE","PERIOD":"95.438","MEAN_ANOMALY":"293.0540","NORAD_CAT_ID":"51996","OBJECT_ID":"2022-025AS","REV_AT_EPOCH":"2915","MEAN_MOTION_DDOT":"0.0000000000000","TLE_LINE1":"1 51996U 22025AS  22259.44169897 -.00001229  00000-0 -59168-4 0  9998","TIME_SYSTEM":"UTC","RA_OF_ASC_NODE":"321.4932","PERIAPSIS":"538.641","ECCENTRICITY":"0.00016080","ARG_OF_PERICENTER":"67.0622","DECAY_DATE":null,"OBJECT_TYPE":"PAYLOAD","SEMIMAJOR_AXIS":"6917.889","MEAN_ELEMENT_THEORY":"SGP4","BSTAR":"-0.00005916800000","EPHEMERIS_TYPE":"0","INCLINATION":"53.2184","GP_ID":"212719136","LAUNCH_DATE":"2022-03-09","REF_FRAME":"TEME","FILE":"3575604","MEAN_MOTION":"15.08837292","EPOCH":"2022-09-16T10:36:02.791008","COUNTRY_CODE":"US","MEAN_MOTION_DOT":"-0.00001229","APOAPSIS":"540.866","TLE_LINE2":"2 51996  53.2184 321.4932 0001608  67.0622 293.0540 15.08837292 29152","SITE":"AFETR","OBJECT_NAME":"STARLINK-3538","CENTER_NAME":"EARTH","CLASSIFICATION_TYPE":"U"},{"MEAN_MOTION_DDOT":"0.0000000000000","REV_AT_EPOCH":"3066","NORAD_CAT_ID":"51997","MEAN_ANOMALY":"280.6309","PERIOD":"95.438","OBJECT_ID":"2022-025AT","ELEMENT_SET_NO":"999","RCS_SIZE":"MEDIUM","MEAN_ELEMENT_THEORY":"SGP4","ECCENTRICITY":"0.00015210","ARG_OF_PERICENTER":"79.4854","DECAY_DATE":null,"OBJECT_TYPE":"PAYLOAD","SEMIMAJOR_AXIS":"6917.886","TIME_SYSTEM":"UTC","RA_OF_ASC_NODE":"321.4339","PERIAPSIS":"538.699","TLE_LINE1":"1 51997U 22025AT  22259.45273224  .00000088  00000-0  23653-4 0  9990","COUNTRY_CODE":"US","MEAN_MOTION":"15.08838215","FILE":"3575385","EPOCH":"2022-09-16T10:51:56.065536","GP_ID":"212691297","LAUNCH_DATE":"2022-03-09","REF_FRAME":"TEME","EPHEMERIS_TYPE":"0","BSTAR":"0.00002365300000","INCLINATION":"53.2180","CLASSIFICATION_TYPE":"U","CENTER_NAME":"EARTH","TLE_LINE2":"2 51997  53.2180 321.4339 0001521  79.4854 280.6309 15.08838215 30667","SITE":"AFETR","OBJECT_NAME":"STARLINK-3589","APOAPSIS":"540.803","MEAN_MOTION_DOT":"0.00000088"},{"MEAN_MOTION_DDOT":"0.0000000000000","REV_AT_EPOCH":"2917","OBJECT_ID":"2022-025AU","NORAD_CAT_ID":"51998","PERIOD":"95.438","MEAN_ANOMALY":"288.9716","RCS_SIZE":"LARGE","ELEMENT_SET_NO":"999","MEAN_ELEMENT_THEORY":"SGP4","DECAY_DATE":null,"OBJECT_TYPE":"PAYLOAD","SEMIMAJOR_AXIS":"6917.913","ARG_OF_PERICENTER":"71.1438","ECCENTRICITY":"0.00014940","PERIAPSIS":"538.744","TIME_SYSTEM":"UTC","RA_OF_ASC_NODE":"321.0135","TLE_LINE1":"1 51998U 22025AU  22259.54474485  .00000499  00000-0  49477-4 0  9991","COUNTRY_CODE":"US","EPOCH":"2022-09-16T13:04:25.955040","MEAN_MOTION":"15.08829396","FILE":"3575604","LAUNCH_DATE":"2022-03-09","REF_FRAME":"TEME","GP_ID":"212720630","INCLINATION":"53.2187","EPHEMERIS_TYPE":"0","BSTAR":"0.00004947700000","CLASSIFICATION_TYPE":"U","SITE":"AFETR","TLE_LINE2":"2 51998  53.2187 321.0135 0001494  71.1438 288.9716 15.08829396 29178","CENTER_NAME":"EARTH","OBJECT_NAME":"STARLINK-3618","APOAPSIS":"540.811","MEAN_MOTION_DOT":"0.00000499"},{"OBJECT_ID":"2022-025AV","NORAD_CAT_ID":"51999","PERIOD":"95.439","MEAN_ANOMALY":"298.2367","REV_AT_EPOCH":"2917","MEAN_MOTION_DDOT":"0.0000000000000","RCS_SIZE":"LARGE","ELEMENT_SET_NO":"999","SEMIMAJOR_AXIS":"6917.950","DECAY_DATE":null,"OBJECT_TYPE":"PAYLOAD","ARG_OF_PERICENTER":"61.8789","ECCENTRICITY":"0.00016310","MEAN_ELEMENT_THEORY":"SGP4","TLE_LINE1":"1 51999U 22025AV  22259.57147333 -.00000244  00000-0  27756-5 0  9990","PERIAPSIS":"538.686","TIME_SYSTEM":"UTC","RA_OF_ASC_NODE":"320.9082","EPOCH":"2022-09-16T13:42:55.295712","MEAN_MOTION":"15.08817337","FILE":"3575787","COUNTRY_CODE":"US","INCLINATION":"53.2181","EPHEMERIS_TYPE":"0","BSTAR":"0.00000277560000","REF_FRAME":"TEME","LAUNCH_DATE":"2022-03-09","GP_ID":"212749939","TLE_LINE2":"2 51999  53.2181 320.9082 0001631  61.8789 298.2367 15.08817337 29178","SITE":"AFETR","CENTER_NAME":"EARTH","OBJECT_NAME":"STARLINK-3667","CLASSIFICATION_TYPE":"U","MEAN_MOTION_DOT":"-0.00000244","APOAPSIS":"540.943"},{"TLE_LINE1":"1 52000U 22025AW  22259.40585223  .00001400  00000-0  10604-3 0  9996","PERIAPSIS":"538.590","RA_OF_ASC_NODE":"321.6436","TIME_SYSTEM":"UTC","DECAY_DATE":null,"SEMIMAJOR_AXIS":"6917.858","OBJECT_TYPE":"PAYLOAD","ARG_OF_PERICENTER":"53.0147","ECCENTRICITY":"0.00016380","MEAN_ELEMENT_THEORY":"SGP4","RCS_SIZE":"LARGE","ELEMENT_SET_NO":"999","OBJECT_ID":"2022-025AW","PERIOD":"95.437","MEAN_ANOMALY":"307.0995","NORAD_CAT_ID":"52000","MEAN_MOTION_DDOT":"0.0000000000000","REV_AT_EPOCH":"2915","MEAN_MOTION_DOT":"0.00001400","APOAPSIS":"540.856","TLE_LINE2":"2 52000  53.2201 321.6436 0001638  53.0147 307.0995 15.08847359 29155","CENTER_NAME":"EARTH","SITE":"AFETR","OBJECT_NAME":"STARLINK-3653","CLASSIFICATION_TYPE":"U","INCLINATION":"53.2201","BSTAR":"0.00010604000000","EPHEMERIS_TYPE":"0","LAUNCH_DATE":"2022-03-09","REF_FRAME":"TEME","GP_ID":"212719636","EPOCH":"2022-09-16T09:44:25.632672","FILE":"3575604","MEAN_MOTION":"15.08847359","COUNTRY_CODE":"US"},{"MEAN_MOTION_DOT":"0.00000399","APOAPSIS":"540.680","SITE":"AFETR","TLE_LINE2":"2 52001  53.2203 321.6322 0001298  72.7841 287.3293 15.08828050 30681","CENTER_NAME":"EARTH","OBJECT_NAME":"STARLINK-3659","CLASSIFICATION_TYPE":"U","INCLINATION":"53.2203","EPHEMERIS_TYPE":"0","BSTAR":"0.00004315600000","LAUNCH_DATE":"2022-03-09","REF_FRAME":"TEME","GP_ID":"212722556","EPOCH":"2022-09-16T09:48:21.765600","MEAN_MOTION":"15.08828050","FILE":"3575635","COUNTRY_CODE":"US","TLE_LINE1":"1 52001U 22025AX  22259.40858525  .00000399  00000-0  43156-4 0  9990","PERIAPSIS":"538.884","TIME_SYSTEM":"UTC","RA_OF_ASC_NODE":"321.6322","SEMIMAJOR_AXIS":"6917.917","DECAY_DATE":null,"OBJECT_TYPE":"PAYLOAD","ARG_OF_PERICENTER":"72.7841","ECCENTRICITY":"0.00012980","MEAN_ELEMENT_THEORY":"SGP4","RCS_SIZE":"LARGE","ELEMENT_SET_NO":"999","OBJECT_ID":"2022-025AX","NORAD_CAT_ID":"52001","PERIOD":"95.438","MEAN_ANOMALY":"287.3293","REV_AT_EPOCH":"3068","MEAN_MOTION_DDOT":"0.0000000000000"}];
